{
  "type": "FeatureCollection",
  "features": [
    {
      "type": "Feature",
      "properties": {
        "norad_id": 36828,
        "name": "BEIDOU-2 IGSO-1 (C06)",
        "group": "beidou",
        "lat": 49.36516950146433,
        "lon": -72.41866078008033,
        "alt_km": 35834.810986409495,
        "timestamp": "2025-12-12T05:47:29.035895+00:00",
        "meta_object_name": "BEIDOU-2 IGSO-1 (C06)",
        "meta_object_id": "2010-036A",
        "meta_epoch": "2025-12-11T21:55:21.552960",
        "meta_mean_motion": 1.00276302,
        "meta_eccentricity": 0.00511689,
        "meta_inclination": 54.2856,
        "meta_ra_of_asc_node": 164.6546,
        "meta_arg_of_pericenter": 215.8043,
        "meta_mean_anomaly": 137.1278,
        "meta_ephemeris_type": 0,
        "meta_classification_type": "U",
        "meta_norad_cat_id": 36828,
        "meta_element_set_no": 999,
        "meta_rev_at_epoch": 5621,
        "meta_bstar": 0,
        "meta_mean_motion_dot": -4.7e-07,
        "meta_mean_motion_ddot": 0,
        "tle_line1": "1 36828U 10036A   25345.91344390 -.00000047  00000+0  00000+0 0  9999",
        "tle_line2": "2 36828  54.2856 164.6546 0051168 215.8043 137.1278  1.00276302 56219"
      },
      "geometry": {
        "type": "Point",
        "coordinates": [
          -72.41866078008033,
          49.36516950146433
        ]
      }
    },
    {
      "type": "Feature",
      "properties": {
        "norad_id": 37210,
        "name": "BEIDOU-2 G4 (C04)",
        "group": "beidou",
        "lat": -3.122184537823673,
        "lon": -31.76709666293249,
        "alt_km": 35768.96853418733,
        "timestamp": "2025-12-12T05:47:29.035918+00:00",
        "meta_object_name": "BEIDOU-2 G4 (C04)",
        "meta_object_id": "2010-057A",
        "meta_epoch": "2025-12-11T22:50:01.032576",
        "meta_mean_motion": 1.00271486,
        "meta_eccentricity": 0.0010925,
        "meta_inclination": 3.183,
        "meta_ra_of_asc_node": 69.9398,
        "meta_arg_of_pericenter": 190.653,
        "meta_mean_anomaly": 322.8905,
        "meta_ephemeris_type": 0,
        "meta_classification_type": "U",
        "meta_norad_cat_id": 37210,
        "meta_element_set_no": 999,
        "meta_rev_at_epoch": 5541,
        "meta_bstar": 0,
        "meta_mean_motion_dot": -1.03e-06,
        "meta_mean_motion_ddot": 0,
        "tle_line1": "1 37210U 10057A   25345.95140084 -.00000103  00000+0  00000+0 0  9999",
        "tle_line2": "2 37210   3.1830  69.9398 0010925 190.6530 322.8905  1.00271486 55418"
      },
      "geometry": {
        "type": "Point",
        "coordinates": [
          -31.76709666293249,
          -3.122184537823673
        ]
      }
    },
    {
      "type": "Feature",
      "properties": {
        "norad_id": 37256,
        "name": "BEIDOU-2 IGSO-2 (C07)",
        "group": "beidou",
        "lat": 1.3424894691300802,
        "lon": -84.65418353874162,
        "alt_km": 35953.69770865605,
        "timestamp": "2025-12-12T05:47:29.035933+00:00",
        "meta_object_name": "BEIDOU-2 IGSO-2 (C07)",
        "meta_object_id": "2010-068A",
        "meta_epoch": "2025-12-03T17:22:36.027840",
        "meta_mean_motion": 1.0028872,
        "meta_eccentricity": 0.00492449,
        "meta_inclination": 47.9042,
        "meta_ra_of_asc_node": 274.2614,
        "meta_arg_of_pericenter": 216.1411,
        "meta_mean_anomaly": 310.24,
        "meta_ephemeris_type": 0,
        "meta_classification_type": "U",
        "meta_norad_cat_id": 37256,
        "meta_element_set_no": 999,
        "meta_rev_at_epoch": 5483,
        "meta_bstar": 0,
        "meta_mean_motion_dot": -2.25e-06,
        "meta_mean_motion_ddot": 0,
        "tle_line1": "1 37256U 10068A   25337.72402810 -.00000225  00000+0  00000+0 0  9990",
        "tle_line2": "2 37256  47.9042 274.2614 0049244 216.1411 310.2400  1.00288720 54834"
      },
      "geometry": {
        "type": "Point",
        "coordinates": [
          -84.65418353874162,
          1.3424894691300802
        ]
      }
    },
    {
      "type": "Feature",
      "properties": {
        "norad_id": 37384,
        "name": "BEIDOU-2 IGSO-3 (C08)",
        "group": "beidou",
        "lat": -45.642983126921806,
        "lon": -105.35945343502844,
        "alt_km": 35688.6383638169,
        "timestamp": "2025-12-12T05:47:29.035947+00:00",
        "meta_object_name": "BEIDOU-2 IGSO-3 (C08)",
        "meta_object_id": "2011-013A",
        "meta_epoch": "2025-12-11T15:37:03.975744",
        "meta_mean_motion": 1.00271037,
        "meta_eccentricity": 0.00354451,
        "meta_inclination": 62.1431,
        "meta_ra_of_asc_node": 41.9258,
        "meta_arg_of_pericenter": 187.4472,
        "meta_mean_anomaly": 193.0762,
        "meta_ephemeris_type": 0,
        "meta_classification_type": "U",
        "meta_norad_cat_id": 37384,
        "meta_element_set_no": 999,
        "meta_rev_at_epoch": 5378,
        "meta_bstar": 0,
        "meta_mean_motion_dot": -1.96e-06,
        "meta_mean_motion_ddot": 0,
        "tle_line1": "1 37384U 11013A   25345.65074046 -.00000196  00000+0  00000+0 0  9997",
        "tle_line2": "2 37384  62.1431  41.9258 0035445 187.4472 193.0762  1.00271037 53789"
      },
      "geometry": {
        "type": "Point",
        "coordinates": [
          -105.35945343502844,
          -45.642983126921806
        ]
      }
    },
    {
      "type": "Feature",
      "properties": {
        "norad_id": 37763,
        "name": "BEIDOU-2 IGSO-4 (C09)",
        "group": "beidou",
        "lat": 54.34701573551708,
        "lon": -95.92009242287631,
        "alt_km": 36227.52902432577,
        "timestamp": "2025-12-12T05:47:29.035960+00:00",
        "meta_object_name": "BEIDOU-2 IGSO-4 (C09)",
        "meta_object_id": "2011-038A",
        "meta_epoch": "2025-12-10T12:04:03.489024",
        "meta_mean_motion": 1.00284678,
        "meta_eccentricity": 0.01490344,
        "meta_inclination": 54.5829,
        "meta_ra_of_asc_node": 167.3658,
        "meta_arg_of_pericenter": 230.2355,
        "meta_mean_anomaly": 317.2212,
        "meta_ephemeris_type": 0,
        "meta_classification_type": "U",
        "meta_norad_cat_id": 37763,
        "meta_element_set_no": 999,
        "meta_rev_at_epoch": 5275,
        "meta_bstar": 0,
        "meta_mean_motion_dot": 3.6e-07,
        "meta_mean_motion_ddot": 0,
        "tle_line1": "1 37763U 11038A   25344.50281816  .00000036  00000+0  00000+0 0  9995",
        "tle_line2": "2 37763  54.5829 167.3658 0149034 230.2355 317.2212  1.00284678 52751"
      },
      "geometry": {
        "type": "Point",
        "coordinates": [
          -95.92009242287631,
          54.34701573551708
        ]
      }
    },
    {
      "type": "Feature",
      "properties": {
        "norad_id": 37948,
        "name": "BEIDOU-2 IGSO-5 (C10)",
        "group": "beidou",
        "lat": -8.771586606300055,
        "lon": -94.1296233531041,
        "alt_km": 36051.51351108006,
        "timestamp": "2025-12-12T05:47:29.035973+00:00",
        "meta_object_name": "BEIDOU-2 IGSO-5 (C10)",
        "meta_object_id": "2011-073A",
        "meta_epoch": "2025-12-11T18:52:10.587360",
        "meta_mean_motion": 1.00291294,
        "meta_eccentricity": 0.0110188,
        "meta_inclination": 48.0217,
        "meta_ra_of_asc_node": 273.869,
        "meta_arg_of_pericenter": 222.2695,
        "meta_mean_anomaly": 320.5714,
        "meta_ephemeris_type": 0,
        "meta_classification_type": "U",
        "meta_norad_cat_id": 37948,
        "meta_element_set_no": 999,
        "meta_rev_at_epoch": 5125,
        "meta_bstar": 0,
        "meta_mean_motion_dot": -2.2e-06,
        "meta_mean_motion_ddot": 0,
        "tle_line1": "1 37948U 11073A   25345.78623365 -.00000220  00000+0  00000+0 0  9995",
        "tle_line2": "2 37948  48.0217 273.8690 0110188 222.2695 320.5714  1.00291294 51250"
      },
      "geometry": {
        "type": "Point",
        "coordinates": [
          -94.1296233531041,
          -8.771586606300055
        ]
      }
    },
    {
      "type": "Feature",
      "properties": {
        "norad_id": 38091,
        "name": "BEIDOU-2 G5 (C05)",
        "group": "beidou",
        "lat": 1.2476979261947956,
        "lon": -133.26318373393153,
        "alt_km": 35767.60780592941,
        "timestamp": "2025-12-12T05:47:29.035985+00:00",
        "meta_object_name": "BEIDOU-2 G5 (C05)",
        "meta_object_id": "2012-008A",
        "meta_epoch": "2025-12-11T22:21:01.772928",
        "meta_mean_motion": 1.0027526,
        "meta_eccentricity": 0.00125845,
        "meta_inclination": 3.1076,
        "meta_ra_of_asc_node": 70.7138,
        "meta_arg_of_pericenter": 227.2436,
        "meta_mean_anomaly": 176.9626,
        "meta_ephemeris_type": 0,
        "meta_classification_type": "U",
        "meta_norad_cat_id": 38091,
        "meta_element_set_no": 999,
        "meta_rev_at_epoch": 5049,
        "meta_bstar": 0,
        "meta_mean_motion_dot": 6.4e-07,
        "meta_mean_motion_ddot": 0,
        "tle_line1": "1 38091U 12008A   25345.93127052  .00000064  00000+0  00000+0 0  9998",
        "tle_line2": "2 38091   3.1076  70.7138 0012584 227.2436 176.9626  1.00275260 50490"
      },
      "geometry": {
        "type": "Point",
        "coordinates": [
          -133.26318373393153,
          1.2476979261947956
        ]
      }
    }
  ]
}